$$SOE
2460154.500000000, A.D. 2023-Jul-29 00:00:00.0000, -2.459108630286744E+08, 1.995733162257737E+08, -1.453666278918171E+07,
2460161.500000000, A.D. 2023-Aug-05 00:00:00.0000, -2.548191827542065E+08, 1.893164773998900E+08, -1.385901140446603E+07,
2460168.500000000, A.D. 2023-Aug-12 00:00:00.0000, -2.633420477230349E+08, 1.787731986840930E+08, -1.316039015483777E+07,
2460175.500000000, A.D. 2023-Aug-19 00:00:00.0000, -2.714696042312035E+08, 1.679614867329914E+08, -1.244200738040093E+07,
2460182.500000000, A.D. 2023-Aug-26 00:00:00.0000, -2.791931184183438E+08, 1.568997119466855E+08, -1.170510013518824E+07,
2460189.500000000, A.D. 2023-Sep-02 00:00:00.0000, -2.865049834334915E+08, 1.456065194933347E+08, -1.095092807965638E+07,
2460196.500000000, A.D. 2023-Sep-09 00:00:00.0000, -2.933987180486653E+08, 1.341007416507427E+08, -1.018076745546898E+07,
2460203.500000000, A.D. 2023-Sep-16 00:00:00.0000, -2.998689569876995E+08, 1.224013123304341E+08, -9.395905227543660E+06,
2460210.500000000, A.D. 2023-Sep-23 00:00:00.0000, -3.059114330936576E+08, 1.105271848985996E+08, -8.597633466704689E+06,
2460217.500000000, A.D. 2023-Sep-30 00:00:00.0000, -3.115229522991735E+08, 9.849725520645374E+07, -7.787243896105934E+06,
2460224.500000000, A.D. 2023-Oct-07 00:00:00.0000, -3.167013644469053E+08, 8.633028989655641E+07, -6.966022474496942E+06,
2460231.500000000, A.D. 2023-Oct-14 00:00:00.0000, -3.214455296621837E+08, 7.404485716989045E+07, -6.135244419628974E+06,
2460238.500000000, A.D. 2023-Oct-21 00:00:00.0000, -3.257552778076758E+08, 6.165926200052956E+07, -5.296169864685312E+06,
2460245.500000000, A.D. 2023-Oct-28 00:00:00.0000, -3.296313632054724E+08, 4.919148832092384E+07, -4.450039851710828E+06,
2460252.500000000, A.D. 2023-Nov-04 00:00:00.0000, -3.330754166406205E+08, 3.665914756165934E+07, -3.598072624116749E+06,
2460259.500000000, A.D. 2023-Nov-11 00:00:00.0000, -3.360898952131965E+08, 2.407943300729744E+07, -2.741460290718802E+06,
2460266.500000000, A.D. 2023-Nov-18 00:00:00.0000, -3.386780305245256E+08, 1.146907987646752E+07, -1.881365886662743E+06,
2460273.500000000, A.D. 2023-Nov-25 00:00:00.0000, -3.408437757838991E+08, -1.155668960266144E+06, -1.018920830256476E+06,
2460280.500000000, A.D. 2023-Dec-02 00:00:00.0000, -3.425917524160870E+08, -1.377909181412991E+07, -1.552227687358903E+05,
2460287.500000000, A.D. 2023-Dec-09 00:00:00.0000, -3.439271966446345E+08, -2.638601185727438E+07, 7.086661894974038E+05,
2460294.500000000, A.D. 2023-Dec-16 00:00:00.0000, -3.448559062568802E+08, -3.896181591457735E+07, 1.571720848537900E+06,
2460301.500000000, A.D. 2023-Dec-23 00:00:00.0000, -3.453841876338299E+08, -5.149246799406003E+07, 2.432953949163780E+06,
2460308.500000000, A.D. 2023-Dec-30 00:00:00.0000, -3.455188047533198E+08, -6.396451684389727E+07, 3.291417074643224E+06,
2460315.500000000, A.D. 2024-Jan-06 00:00:00.0000, -3.452669322462994E+08, -7.636510025057830E+07, 4.146201431392640E+06,
2460322.500000000, A.D. 2024-Jan-13 00:00:00.0000, -3.446361095841961E+08, -8.868194824769442E+07, 4.996438090078782E+06,
2460329.500000000, A.D. 2024-Jan-20 00:00:00.0000, -3.436341953678690E+08, -1.009033825152085E+08, 5.841297851628542E+06,
2460336.500000000, A.D. 2024-Jan-27 00:00:00.0000, -3.422693238915793E+08, -1.130183116812007E+08, 6.679991001341946E+06,
2460343.500000000, A.D. 2024-Feb-03 00:00:00.0000, -3.405498645193668E+08, -1.250162238324144E+08, 7.511766935340866E+06,
2460350.500000000, A.D. 2024-Feb-10 00:00:00.0000, -3.384843836730707E+08, -1.368871768644509E+08, 8.335913632050671E+06,
2460357.500000000, A.D. 2024-Feb-17 00:00:00.0000, -3.360816093326418E+08, -1.486217869802605E+08, 9.151756978420071E+06,
2460364.500000000, A.D. 2024-Feb-24 00:00:00.0000, -3.333503980155618E+08, -1.602112156175681E+08, 9.958659969765089E+06,
2460371.500000000, A.D. 2024-Mar-02 00:00:00.0000, -3.302997041790296E+08, -1.716471551137224E+08, 1.075602179745589E+07,
2460378.500000000, A.D. 2024-Mar-09 00:00:00.0000, -3.269385518564733E+08, -1.829218134267061E+08, 1.154327682456079E+07,
2460385.500000000, A.D. 2024-Mar-16 00:00:00.0000, -3.232760080658684E+08, -1.940278979496234E+08, 1.231989344575456E+07,
2460392.500000000, A.D. 2024-Mar-23 00:00:00.0000, -3.193211580119532E+08, -2.049585975221395E+08, 1.308537294654819E+07,
2460399.500000000, A.D. 2024-Mar-30 00:00:00.0000, -3.150830842304937E+08, -2.157075628568761E+08, 1.383924857856275E+07,
2460406.500000000, A.D. 2024-Apr-06 00:00:00.0000, -3.105708493188320E+08, -2.262688889203637E+08, 1.458108456402782E+07,
2460413.500000000, A.D. 2024-Apr-13 00:00:00.0000, -3.057934785987044E+08, -2.366370985840088E+08, 1.531047478296570E+07,
2460420.500000000, A.D. 2024-Apr-20 00:00:00.0000, -3.007599435555646E+08, -2.468071249982902E+08, 1.602704145886956E+07,
2460427.500000000, A.D. 2024-Apr-27 00:00:00.0000, -2.954791474582771E+08, -2.567742933624746E+08, 1.673043394436431E+07,
2460434.500000000, A.D. 2024-May-04 00:00:00.0000, -2.899599129563540E+08, -2.665343028896798E+08, 1.742032754802303E+07,
2460441.500000000, A.D. 2024-May-11 00:00:00.0000, -2.842109713036069E+08, -2.760832091532413E+08, 1.809642237785624E+07,
2460448.500000000, A.D. 2024-May-18 00:00:00.0000, -2.782409530174881E+08, -2.854174068645263E+08, 1.875844220085210E+07,
2460455.500000000, A.D. 2024-May-25 00:00:00.0000, -2.720583798447648E+08, -2.945336131487348E+08, 1.940613332033950E+07,
2460462.500000000, A.D. 2024-Jun-01 00:00:00.0000, -2.656716578732482E+08, -3.034288514243158E+08, 2.003926346500343E+07,
2460469.500000000, A.D. 2024-Jun-08 00:00:00.0000, -2.590890714475023E+08, -3.121004359470235E+08, 2.065762066846173E+07,
2460476.500000000, A.D. 2024-Jun-15 00:00:00.0000, -2.523187773981205E+08, -3.205459565021626E+08, 2.126101215006423E+07,
2460483.500000000, A.D. 2024-Jun-22 00:00:00.0000, -2.453688005031169E+08, -3.287632620897005E+08, 2.184926338723467E+07,
2460490.500000000, A.D. 2024-Jun-29 00:00:00.0000, -2.382470322201266E+08, -3.367504454359106E+08, 2.242221742650896E+07,
2460497.500000000, A.D. 2024-Jul-06 00:00:00.0000, -2.309612299667542E+08, -3.445058308114750E+08, 2.297973398964277E+07,
2460504.500000000, A.D. 2024-Jul-13 00:00:00.0000, -2.235190149285136E+08, -3.520279623362812E+08, 2.352168842757638E+07,
2460511.500000000, A.D. 2024-Jul-20 00:00:00.0000, -2.159278703132494E+08, -3.593155916205969E+08, 2.404797079868183E+07,
2460518.500000000, A.D. 2024-Jul-27 00:00:00.0000, -2.081951406449310E+08, -3.663676656959505E+08, 2.455848505291176E+07,
2460525.500000000, A.D. 2024-Aug-03 00:00:00.0000, -2.003280317647065E+08, -3.731833156018513E+08, 2.505314826555900E+07,
2460532.500000000, A.D. 2024-Aug-10 00:00:00.0000, -1.923336113186546E+08, -3.797618456225498E+08, 2.553188990417582E+07,
2460539.500000000, A.D. 2024-Aug-17 00:00:00.0000, -1.842188096350901E+08, -3.861027231407607E+08, 2.599465112519008E+07,
2460546.500000000, A.D. 2024-Aug-24 00:00:00.0000, -1.759904209186759E+08, -3.922055691176878E+08, 2.644138409498045E+07,
2460553.500000000, A.D. 2024-Aug-31 00:00:00.0000, -1.676551046050432E+08, -3.980701492461252E+08, 2.687205131885701E+07,
2460560.500000000, A.D. 2024-Sep-07 00:00:00.0000, -1.592193864734993E+08, -4.036963656339784E+08, 2.728662495371319E+07,
2460567.500000000, A.D. 2024-Sep-14 00:00:00.0000, -1.506896593990900E+08, -4.090842480043593E+08, 2.768508617674349E+07,
2460574.500000000, A.D. 2024-Sep-21 00:00:00.0000, -1.420721857418293E+08, -4.142339439795650E+08, 2.806742482856697E+07,
2460581.500000000, A.D. 2024-Sep-28 00:00:00.0000, -1.333731018307641E+08, -4.191457116556672E+08, 2.843363910989580E+07,
2460588.500000000, A.D. 2024-Oct-05 00:00:00.0000, -1.245984208451304E+08, -4.238199144472428E+08, 2.878373499357036E+07,
2460595.500000000, A.D. 2024-Oct-12 00:00:00.0000, -1.157540344282003E+08, -4.282570152055025E+08, 2.911772562722328E+07,
2460602.500000000, A.D. 2024-Oct-19 00:00:00.0000, -1.068457147628617E+08, -4.324575698649493E+08, 2.943563086396718E+07,
2460609.500000000, A.D. 2024-Oct-26 00:00:00.0000, -9.787911712270106E+07, -4.364222214046857E+08, 2.973747685771009E+07,
2460616.500000000, A.D. 2024-Nov-02 00:00:00.0000, -8.885978262537958E+07, -4.401516942569815E+08, 3.002329568652797E+07,
2460623.500000000, A.D. 2024-Nov-09 00:00:00.0000, -7.979314107742898E+07, -4.436467891259596E+08, 3.029312499597868E+07,
2460630.500000000, A.D. 2024-Nov-16 00:00:00.0000, -7.068451387135197E+07, -4.469083781997954E+08, 3.054700765902257E+07,
2460637.500000000, A.D. 2024-Nov-23 00:00:00.0000, -6.153911687614322E+07, -4.499374007905945E+08, 3.078499144326282E+07,
2460644.500000000, A.D. 2024-Nov-30 00:00:00.0000, -5.236206310235500E+07, -4.527348594294179E+08, 3.100712866208076E+07,
2460651.500000000, A.D. 2024-Dec-07 00:00:00.0000, -4.315836471296330E+07, -4.553018159811424E+08, 3.121347580475843E+07,
2460658.500000000, A.D. 2024-Dec-14 00:00:00.0000, -3.393293506050043E+07, -4.576393865407876E+08, 3.140409330795050E+07,
2460665.500000000, A.D. 2024-Dec-21 00:00:00.0000, -2.469059306158888E+07, -4.597487363375776E+08, 3.157904557884556E+07,
2460672.500000000, A.D. 2024-Dec-28 00:00:00.0000, -1.543606792917917E+07, -4.616310776005425E+08, 3.173840084568468E+07,
2460679.500000000, A.D. 2025-Jan-04 00:00:00.0000, -6.174001659038277E+06, -4.632876679982030E+08, 3.188223079103217E+07,
2460686.500000000, A.D. 2025-Jan-11 00:00:00.0000, 3.091048912941752E+06, -4.647198079819993E+08, 3.201061027012512E+07,
2460693.500000000, A.D. 2025-Jan-18 00:00:00.0000, 1.235460956952726E+07, -4.659288379415563E+08, 3.212361712292290E+07,
2460700.500000000, A.D. 2025-Jan-25 00:00:00.0000, 2.161228593384083E+07, -4.669161356358112E+08, 3.222133201830402E+07,
2460707.500000000, A.D. 2025-Feb-01 00:00:00.0000, 3.085976064634629E+07, -4.676831139199740E+08, 3.230383831010208E+07,
2460714.500000000, A.D. 2025-Feb-08 00:00:00.0000, 4.009279055813863E+07, -4.682312187389219E+08, 3.237122190071774E+07,
$$EOE